DMSP 5D-3 F16 (USA 172) 
1 28054U 03048A   26023.58745309  .00000252  00000+0  15534-3 0  9997
2 28054  99.0024  46.3694 0007102 189.0765 281.7873 14.14442576149045
METEOSAT-9 (MSG-2)      
1 28912U 05049B   26023.22747448  .00000137  00000+0  00000+0 0  9990
2 28912   9.0308  55.5787 0001646 201.2213 353.2697  1.00272563  5544
DMSP 5D-3 F17 (USA 191) 
1 29522U 06050A   26023.56292771  .00000300  00000+0  17759-3 0  9997
2 29522  98.7400  33.0827 0011083 107.8028 252.4356 14.14941264991969
FENGYUN 3A              
1 32958U 08026A   26023.55423225  .00000224  00000+0  12675-3 0  9995
2 32958  98.6746 327.2115 0008615 177.5437 182.5783 14.19530442914881
GOES 14                 
1 35491U 09033A   26023.54826030  .00000119  00000+0  00000+0 0  9997
2 35491   1.3103  84.9290 0001162 251.6508 207.9976  1.00104883  5146
DMSP 5D-3 F18 (USA 210) 
1 35951U 09057A   26023.59311310  .00000466  00000+0  26468-3 0  9994
2 35951  98.8889   4.7968 0010294 305.8454  54.1763 14.14802323839143
EWS-G2 (GOES 15)        
1 36411U 10008A   26023.58734720  .00000052  00000+0  00000+0 0  9998
2 36411   0.9132  85.8781 0005203 192.5955 117.3311  1.00274017 58186
COMS 1                  
1 36744U 10032A   26023.38653937 -.00000331  00000+0  00000+0 0  9993
2 36744   4.4373  77.4768 0001011 245.6521  66.9200  1.00269989 49633
FENGYUN 3B              
1 37214U 10059A   26023.63347662  .00000587  00000+0  32709-3 0  9995
2 37214  98.9844  68.8923 0021300 235.0211 297.1217 14.14806044786986
SUOMI NPP               
1 37849U 11061A   26023.63275593  .00000212  00000+0  12133-3 0  9990
2 37849  98.7820 325.6074 0002234  48.9695 311.1673 14.19528901737937
METEOSAT-10 (MSG-3)     
1 38552U 12035B   26023.36102859  .00000006  00000+0  00000+0 0  9995
2 38552   4.3269  61.6253 0002094 275.8742 275.1855  1.00270495 49400
METOP-B                 
1 38771U 12049A   26023.60588105  .00000263  00000+0  14035-3 0  9994
2 38771  98.6736  77.8427 0003052  59.4197 300.7281 14.21427360692724
INSAT-3D                
1 39216U 13038B   26023.64472444 -.00000324  00000+0  00000+0 0  9992
2 39216   1.5513  84.4934 0001943 188.4462 211.6365  1.00273413 45633
FENGYUN 3C              
1 39260U 13052A   26023.58504159  .00000203  00000+0  12446-3 0  9995
2 39260  98.4817   4.2323 0015824  80.3129 279.9833 14.15711772638101
METEOR-M 2              
1 40069U 14037A   26023.56198602  .00000519  00000+0  25690-3 0  9993
2 40069  98.4958   4.5542 0006897  94.8486 265.3480 14.21407999598773
HIMAWARI-8              
1 40267U 14060A   26023.44627998  .00000000  00000+0  00000+0 0  9990
2 40267   0.0134 229.6831 0001062  59.3350 135.0728  1.00272174 41302
FENGYUN 2G              
1 40367U 14090A   26023.65847476 -.00000289  00000+0  00000+0 0  9992
2 40367   5.2711  74.5920 0001572 184.6061 200.4916  1.00269193 40553
METEOSAT-11 (MSG-4)     
1 40732U 15034A   26023.29178152  .00000079  00000+0  00000+0 0  9991
2 40732   2.8402  71.8608 0000199 162.8362   2.6077  1.00280549  5760
ELEKTRO-L 2             
1 41105U 15074A   26023.35825523 -.00000105  00000+0  00000+0 0  9999
2 41105   6.3282  72.3255 0003439 222.3601 302.4555  1.00272974 37054
INSAT-3DR               
1 41752U 16054A   26023.51853347 -.00000062  00000+0  00000+0 0  9991
2 41752   0.1101  88.3149 0014067 187.3630 107.8459  1.00271442 34364
HIMAWARI-9              
1 41836U 16064A   26022.74716801 -.00000260  00000+0  00000+0 0  9992
2 41836   0.0103 156.4619 0000808 183.2043 192.1713  1.00273229 33755
GOES 16                 
1 41866U 16071A   26023.52475587 -.00000076  00000+0  00000+0 0  9998
2 41866   0.1216  95.9826 0003049 187.2762 283.8048  1.00271298 33655
FENGYUN 4A              
1 41882U 16077A   26023.75991221 -.00000343  00000+0  00000+0 0  9992
2 41882   1.9532  81.9573 0005253 135.4675 302.9048  1.00264582 33486
CYGFM05                 
1 41884U 16078A   26023.64340817  .00031489  00000+0  55122-3 0  9995
2 41884  34.9585 133.0258 0008490 213.7708 146.2474 15.49556385506260
CYGFM04                 
1 41885U 16078B   26023.52343578  .00033214  00000+0  52249-3 0  9995
2 41885  34.9336 107.3259 0007534 239.3633 120.6347 15.52541815506439
CYGFM02                 
1 41886U 16078C   26023.54578333  .00084475  00000+0  12337-2 0  9995
2 41886  34.9422 104.9244 0008918 239.8983 120.0856 15.54368332506570
CYGFM01                 
1 41887U 16078D   26023.61901124  .00032955  00000+0  56389-3 0  9994
2 41887  34.9414 135.2273 0008121 205.3337 154.6988 15.50193453506203
CYGFM08                 
1 41888U 16078E   26023.64041100  .00034285  00000+0  55884-3 0  9994
2 41888  34.9443 117.5629 0009733 229.9412 130.0458 15.51529696506449
CYGFM07                 
1 41890U 16078G   26023.56189565  .00034084  00000+0  54355-3 0  9995
2 41890  34.9463 106.8157 0007937 246.1611 113.8280 15.52156575506453
CYGFM03                 
1 41891U 16078H   26023.59436024  .00033733  00000+0  54032-3 0  9996
2 41891  34.9417 108.5497 0007498 231.6711 128.3338 15.52040422506437
FENGYUN 3D              
1 43010U 17072A   26023.60174628  .00000324  00000+0  17481-3 0  9994
2 43010  98.9958 355.5514 0002482  93.7422 266.4037 14.19699955424476
NOAA 20 (JPSS-1)        
1 43013U 17073A   26023.57676825  .00000205  00000+0  11821-3 0  9990
2 43013  98.7645 324.4259 0001147  27.0566 333.0670 14.19539368423954
GOES 17                 
1 43226U 18022A   26023.51919544 -.00000168  00000+0  00000+0 0  9995
2 43226   0.5635  88.4558 0002940 202.3348 289.4620  1.00271370 28971
FENGYUN 2H              
1 43491U 18050A   26023.59081389 -.00000112  00000+0  00000+0 0  9994
2 43491   2.6564  80.8705 0002264 176.3419 157.4474  1.00267691 27989
METOP-C                 
1 43689U 18087A   26023.63234724  .00000257  00000+0  13744-3 0  9993
2 43689  98.6863  85.7466 0000999 167.1744 192.9459 14.21503369374293
GEO-KOMPSAT-2A          
1 43823U 18100A   26023.64188182 -.00000329  00000+0  00000+0 0  9994
2 43823   0.0131 147.5636 0000518 251.4545  83.2663  1.00272985 26188
METEOR-M2 2             
1 44387U 19038A   26023.60545260 -.00000005  00000+0  17576-4 0  9993
2 44387  98.9025   8.8570 0002331  78.3942 281.7498 14.24312113340717
ARKTIKA-M 1             
1 47719U 21016A   26022.94471818 -.00000086  00000+0  00000+0 0  9995
2 47719  63.1884  78.3174 7224773 269.2923  15.3697  2.00632444 35874
FENGYUN 3E              
1 49008U 21062A   26023.60278097 -.00000097  00000+0 -24964-4 0  9990
2 49008  98.7490  28.6300 0002358 120.0933 240.0477 14.19886577236062
GOES 18                 
1 51850U 22021A   26023.54800030  .00000112  00000+0  00000+0 0  9991
2 51850   0.0107 100.8828 0000779 246.5156 195.7527  1.00272434  5147
NOAA 21 (JPSS-2)        
1 54234U 22150A   26023.61190495  .00000215  00000+0  12293-3 0  9993
2 54234  98.7508 324.4078 0000700 226.6110 133.5008 14.19538339166032
METEOSAT-12 (MTG-I1)    
1 54743U 22170C   26023.57512713  .00000007  00000+0  00000+0 0  9994
2 54743   0.6945  22.6333 0002179 262.3165  44.7809  1.00267597 11520
TIANMU-1 03             
1 55973U 23039A   26023.62260024  .00022945  00000+0  53220-3 0  9997
2 55973  97.5131 192.4924 0002443 261.7401  98.3569 15.42406335158515
TIANMU-1 04             
1 55974U 23039B   26023.52770803  .00022621  00000+0  51841-3 0  9996
2 55974  97.5061 191.5695 0003163 255.5073 104.5823 15.42767816158505
TIANMU-1 05             
1 55975U 23039C   26023.59754388  .00022473  00000+0  52222-3 0  9993
2 55975  97.5108 192.1348 0002310 292.4030  67.6972 15.42355122158491
TIANMU-1 06             
1 55976U 23039D   26023.59340953  .00022741  00000+0  52035-3 0  9993
2 55976  97.5119 192.6306 0002622 282.5144  77.5809 15.42814779158515
FENGYUN 3G              
1 56232U 23055A   26023.53798522  .00043030  00000+0  65190-3 0  9990
2 56232  49.9947  11.8628 0004103  71.4532 288.6881 15.54156052157523
METEOR-M2 3             
1 57166U 23091A   26023.63858068  .00000048  00000+0  39812-4 0  9995
2 57166  98.6314  81.4335 0003266 217.6791 142.4160 14.24032189133944
TIANMU-1 07             
1 57399U 23101A   26023.62673843  .00010847  00000+0  39002-3 0  9998
2 57399  97.2812  77.5583 0002401 298.7682  61.3316 15.28793825139551
TIANMU-1 08             
1 57400U 23101B   26021.23878063  .00050642  00000+0  18086-2 0  9992
2 57400  97.2800  75.0109 0004303 306.7375  53.3469 15.28667090139183
TIANMU-1 09             
1 57401U 23101C   26023.57990253  .00010686  00000+0  38391-3 0  9994
2 57401  97.2757  76.7947 0003594 301.0782  59.0105 15.28823382139542
TIANMU-1 10             
1 57402U 23101D   26023.61430417  .00010760  00000+0  38655-3 0  9997
2 57402  97.2837  77.7226 0005326 298.4380  61.6323 15.28816905139545
FENGYUN 3F              
1 57490U 23111A   26023.65987148  .00000177  00000+0  10377-3 0  9999
2 57490  98.7017  96.2648 0001368 109.9269 250.2055 14.19907102128350
ARKTIKA-M 2             
1 58584U 23198A   26021.20886471  .00000198  00000+0  00000+0 0  9996
2 58584  63.2245 170.5896 6869336 267.9347  18.8486  2.00602760 15373
TIANMU-1 11             
1 58645U 23205A   26023.61309010  .00009120  00000+0  36544-3 0  9999
2 58645  97.3581  47.5104 0010106 146.1167 214.0718 15.25206822115472
TIANMU-1 12             
1 58646U 23205B   26023.57739855  .00008825  00000+0  35490-3 0  9999
2 58646  97.3569  47.2671 0008779 129.7952 230.4060 15.25107752115459
TIANMU-1 13             
1 58647U 23205C   26023.60973223  .00009601  00000+0  38521-3 0  9994
2 58647  97.3597  47.5180 0009327 114.5664 245.6547 15.25154246115459
TIANMU-1 14             
1 58648U 23205D   26023.59364234  .00009434  00000+0  37874-3 0  9993
2 58648  97.3531  46.8122 0010097 118.6667 241.5587 15.25133756115452
TIANMU-1 19             
1 58660U 23208A   26023.58277917  .00014339  00000+0  51456-3 0  9992
2 58660  97.4380 139.5628 0006354 106.8475 253.3462 15.28779493115211
TIANMU-1 20             
1 58661U 23208B   26023.60216579  .00014673  00000+0  50737-3 0  9995
2 58661  97.4318 140.0709 0008542 115.4582 244.7543 15.29971424115297
TIANMU-1 21             
1 58662U 23208C   26023.59604410  .00017158  00000+0  54727-3 0  9993
2 58662  97.4370 142.1658 0008359 111.8719 248.3412 15.32547704115402
TIANMU-1 22             
1 58663U 23208D   26023.59015053  .00013680  00000+0  49590-3 0  9991
2 58663  97.4375 139.6083 0004873 125.1967 234.9729 15.28467480115220
TIANMU-1 15             
1 58700U 24004A   26023.65653196  .00010255  00000+0  41225-3 0  9993
2 58700  97.4640 209.9850 0008024 131.1459 229.0472 15.25088225113732
TIANMU-1 16             
1 58701U 24004B   26023.64091571  .00010076  00000+0  40488-3 0  9997
2 58701  97.4581 209.3257 0006429 132.1049 228.0736 15.25117091113731
TIANMU-1 17             
1 58702U 24004C   26023.62435706  .00009567  00000+0  38421-3 0  9995
2 58702  97.4614 209.7407 0005591 131.8991 228.2724 15.25155950113725
TIANMU-1 18             
1 58703U 24004D   26023.60827125  .00009760  00000+0  39227-3 0  9994
2 58703  97.4631 209.9284 0005013 129.5181 230.6501 15.25124146113727
INSAT-3DS               
1 58990U 24033A   26023.59142056 -.00000141  00000+0  00000+0 0  9993
2 58990   0.0605 261.7201 0001733  65.4883  90.7066  1.00270627 45610
METEOR-M2 4             
1 59051U 24039A   26023.62971289  .00000091  00000+0  60334-4 0  9994
2 59051  98.6829 344.8947 0006221 222.3790 137.6908 14.22409131 98715
GOES 19                 
1 60133U 24119A   26023.56022038 -.00000233  00000+0  00000+0 0  9996
2 60133   0.0048 308.0941 0001012  33.8122 267.4670  1.00269696  5517
FENGYUN 3H              
1 65815U 25219A   26023.58602262  .00000216  00000+0  12200-3 0  9994
2 65815  98.6633 327.2784 0001467  98.0173 262.1170 14.19918745 16860
